{
  "type": "FeatureCollection",
  "features": [
    {
      "type": "Feature",
      "properties": {
        "norad_id": 34314,
        "name": "COSMOS 2251 DEB",
        "group": "cosmos-2251-debris",
        "lat": 72.1215339531583,
        "lon": 7.808963947390604,
        "alt_km": 763.4386183929882,
        "timestamp": "2025-12-14T14:39:29.763088+00:00",
        "meta_object_name": "COSMOS 2251 DEB",
        "meta_object_id": "1993-036NL",
        "meta_epoch": "2025-12-13T23:22:34.967712",
        "meta_mean_motion": 14.17427817,
        "meta_eccentricity": 0.0102837,
        "meta_inclination": 74.0061,
        "meta_ra_of_asc_node": 306.1806,
        "meta_arg_of_pericenter": 51.5255,
        "meta_mean_anomaly": 21.9308,
        "meta_ephemeris_type": 0,
        "meta_classification_type": "U",
        "meta_norad_cat_id": 34314,
        "meta_element_set_no": 999,
        "meta_rev_at_epoch": 86675,
        "meta_bstar": 0.00066379715,
        "meta_mean_motion_dot": 1.392e-05,
        "meta_mean_motion_ddot": 0,
        "tle_line1": "1 34314U 93036NL  25347.97401583  .00001392  00000+0  66380-3 0  9994",
        "tle_line2": "2 34314  74.0061 306.1806 0102837  51.5255  21.9308 14.17427817866750"
      },
      "geometry": {
        "type": "Point",
        "coordinates": [
          7.808963947390604,
          72.1215339531583
        ]
      }
    },
    {
      "type": "Feature",
      "properties": {
        "norad_id": 34316,
        "name": "COSMOS 2251 DEB",
        "group": "cosmos-2251-debris",
        "lat": 50.7491854796513,
        "lon": -6.390447857488168,
        "alt_km": 581.1651581812357,
        "timestamp": "2025-12-14T14:39:29.763098+00:00",
        "meta_object_name": "COSMOS 2251 DEB",
        "meta_object_id": "1993-036NN",
        "meta_epoch": "2025-12-13T23:56:04.771680",
        "meta_mean_motion": 14.91885853,
        "meta_eccentricity": 0.00083682,
        "meta_inclination": 74.0645,
        "meta_ra_of_asc_node": 334.3693,
        "meta_arg_of_pericenter": 58.2966,
        "meta_mean_anomaly": 301.9031,
        "meta_ephemeris_type": 0,
        "meta_classification_type": "U",
        "meta_norad_cat_id": 34316,
        "meta_element_set_no": 999,
        "meta_rev_at_epoch": 89228,
        "meta_bstar": 0.0016015252,
        "meta_mean_motion_dot": 0.00016203,
        "meta_mean_motion_ddot": 0,
        "tle_line1": "1 34316U 93036NN  25347.99727745  .00016203  00000+0  16015-2 0  9995",
        "tle_line2": "2 34316  74.0645 334.3693 0008368  58.2966 301.9031 14.91885853892285"
      },
      "geometry": {
        "type": "Point",
        "coordinates": [
          -6.390447857488168,
          50.7491854796513
        ]
      }
    },
    {
      "type": "Feature",
      "properties": {
        "norad_id": 34317,
        "name": "COSMOS 2251 DEB",
        "group": "cosmos-2251-debris",
        "lat": 25.691503461590557,
        "lon": 40.65247376353953,
        "alt_km": 767.9380624546866,
        "timestamp": "2025-12-14T14:39:29.763108+00:00",
        "meta_object_name": "COSMOS 2251 DEB",
        "meta_object_id": "1993-036NP",
        "meta_epoch": "2025-12-13T12:28:19.156224",
        "meta_mean_motion": 13.65122716,
        "meta_eccentricity": 0.03365384,
        "meta_inclination": 73.9247,
        "meta_ra_of_asc_node": 34.4743,
        "meta_arg_of_pericenter": 23.5834,
        "meta_mean_anomaly": 42.8611,
        "meta_ephemeris_type": 0,
        "meta_classification_type": "U",
        "meta_norad_cat_id": 34317,
        "meta_element_set_no": 999,
        "meta_rev_at_epoch": 83630,
        "meta_bstar": 0.00053173727,
        "meta_mean_motion_dot": 6.13e-06,
        "meta_mean_motion_ddot": 0,
        "tle_line1": "1 34317U 93036NP  25347.51966616  .00000613  00000+0  53174-3 0  9992",
        "tle_line2": "2 34317  73.9247  34.4743 0336538  23.5834  42.8611 13.65122716836306"
      },
      "geometry": {
        "type": "Point",
        "coordinates": [
          40.65247376353953,
          25.691503461590557
        ]
      }
    },
    {
      "type": "Feature",
      "properties": {
        "norad_id": 34321,
        "name": "COSMOS 2251 DEB",
        "group": "cosmos-2251-debris",
        "lat": -70.38433498789408,
        "lon": 99.36901066288912,
        "alt_km": 721.1110497315722,
        "timestamp": "2025-12-14T14:39:29.763118+00:00",
        "meta_object_name": "COSMOS 2251 DEB",
        "meta_object_id": "1993-036NT",
        "meta_epoch": "2025-12-13T21:30:01.441728",
        "meta_mean_motion": 14.50062903,
        "meta_eccentricity": 0.00158364,
        "meta_inclination": 74.0279,
        "meta_ra_of_asc_node": 154.1895,
        "meta_arg_of_pericenter": 283.6748,
        "meta_mean_anomaly": 227.3938,
        "meta_ephemeris_type": 0,
        "meta_classification_type": "U",
        "meta_norad_cat_id": 34321,
        "meta_element_set_no": 999,
        "meta_rev_at_epoch": 88503,
        "meta_bstar": 0.00072843948,
        "meta_mean_motion_dot": 2.803e-05,
        "meta_mean_motion_ddot": 0,
        "tle_line1": "1 34321U 93036NT  25347.89585002  .00002803  00000+0  72844-3 0  9992",
        "tle_line2": "2 34321  74.0279 154.1895 0015836 283.6748 227.3938 14.50062903885036"
      },
      "geometry": {
        "type": "Point",
        "coordinates": [
          99.36901066288912,
          -70.38433498789408
        ]
      }
    },
    {
      "type": "Feature",
      "properties": {
        "norad_id": 34323,
        "name": "COSMOS 2251 DEB",
        "group": "cosmos-2251-debris",
        "lat": 70.79539451839695,
        "lon": -116.28267654270269,
        "alt_km": 620.1287521379882,
        "timestamp": "2025-12-14T14:39:29.763128+00:00",
        "meta_object_name": "COSMOS 2251 DEB",
        "meta_object_id": "1993-036NV",
        "meta_epoch": "2025-12-13T19:12:43.531776",
        "meta_mean_motion": 14.74482841,
        "meta_eccentricity": 0.00588672,
        "meta_inclination": 73.9524,
        "meta_ra_of_asc_node": 121.0318,
        "meta_arg_of_pericenter": 164.8109,
        "meta_mean_anomaly": 317.2185,
        "meta_ephemeris_type": 0,
        "meta_classification_type": "U",
        "meta_norad_cat_id": 34323,
        "meta_element_set_no": 999,
        "meta_rev_at_epoch": 88455,
        "meta_bstar": 0.0028484521,
        "meta_mean_motion_dot": 0.00019493,
        "meta_mean_motion_ddot": 0,
        "tle_line1": "1 34323U 93036NV  25347.80050384  .00019493  00000+0  28485-2 0  9999",
        "tle_line2": "2 34323  73.9524 121.0318 0058867 164.8109 317.2185 14.74482841884556"
      },
      "geometry": {
        "type": "Point",
        "coordinates": [
          -116.28267654270269,
          70.79539451839695
        ]
      }
    },
    {
      "type": "Feature",
      "properties": {
        "norad_id": 34325,
        "name": "COSMOS 2251 DEB",
        "group": "cosmos-2251-debris",
        "lat": -24.12126918134995,
        "lon": 16.955349997700864,
        "alt_km": 744.0206129319185,
        "timestamp": "2025-12-14T14:39:29.763138+00:00",
        "meta_object_name": "COSMOS 2251 DEB",
        "meta_object_id": "1993-036NX",
        "meta_epoch": "2025-12-13T22:53:37.582944",
        "meta_mean_motion": 14.04482133,
        "meta_eccentricity": 0.01921305,
        "meta_inclination": 73.8711,
        "meta_ra_of_asc_node": 190.6677,
        "meta_arg_of_pericenter": 207.7413,
        "meta_mean_anomaly": 277.5148,
        "meta_ephemeris_type": 0,
        "meta_classification_type": "U",
        "meta_norad_cat_id": 34325,
        "meta_element_set_no": 999,
        "meta_rev_at_epoch": 85532,
        "meta_bstar": 0.0020445155,
        "meta_mean_motion_dot": 3.82e-05,
        "meta_mean_motion_ddot": 0,
        "tle_line1": "1 34325U 93036NX  25347.95390721  .00003820  00000+0  20445-2 0  9994",
        "tle_line2": "2 34325  73.8711 190.6677 0192130 207.7413 277.5148 14.04482133855329"
      },
      "geometry": {
        "type": "Point",
        "coordinates": [
          16.955349997700864,
          -24.12126918134995
        ]
      }
    },
    {
      "type": "Feature",
      "properties": {
        "norad_id": 34327,
        "name": "COSMOS 2251 DEB",
        "group": "cosmos-2251-debris",
        "lat": -47.73381872397905,
        "lon": 6.547535848629993,
        "alt_km": 616.0028452663273,
        "timestamp": "2025-12-14T14:39:29.763148+00:00",
        "meta_object_name": "COSMOS 2251 DEB",
        "meta_object_id": "1993-036NZ",
        "meta_epoch": "2025-12-13T23:40:10.617600",
        "meta_mean_motion": 14.89222498,
        "meta_eccentricity": 0.00328886,
        "meta_inclination": 73.9937,
        "meta_ra_of_asc_node": 169.3863,
        "meta_arg_of_pericenter": 345.49,
        "meta_mean_anomaly": 138.2953,
        "meta_ephemeris_type": 0,
        "meta_classification_type": "U",
        "meta_norad_cat_id": 34327,
        "meta_element_set_no": 999,
        "meta_rev_at_epoch": 89526,
        "meta_bstar": 0.00136337,
        "meta_mean_motion_dot": 0.00013016,
        "meta_mean_motion_ddot": 0,
        "tle_line1": "1 34327U 93036NZ  25347.98623400  .00013016  00000+0  13634-2 0  9992",
        "tle_line2": "2 34327  73.9937 169.3863 0032888 345.4900 138.2953 14.89222498895269"
      },
      "geometry": {
        "type": "Point",
        "coordinates": [
          6.547535848629993,
          -47.73381872397905
        ]
      }
    }
  ]
}